COSMOS 1892             
1 18421U 87088A   20246.90048259  .00000421  00000-0  19465-4 0  9994
2 18421  82.5015 196.8897 0015730 151.3154 208.8948 15.17210783796290
SL-14 R/B               
1 18749U 88001B   20246.67968987  .00000083  00000-0  72319-5 0  9998
2 18749  82.5124 285.2701 0019875  47.2361  95.8499 14.83225613764412
COSMOS 1933             
1 18958U 88020A   20246.91655728  .00000109  00000-0  58992-5 0  9994
2 18958  82.5281  50.7842 0009955 245.1218 114.8974 15.03753736746726
SL-3 R/B                
1 19046U 88032B   20247.10187053 -.00000316  00000-0 -18930-4 0  9998
2 19046  97.4018 264.7205 0035194 304.3509  55.4389 15.02749660748916
SL-16 R/B               
1 19120U 88039B   20246.78779710  .00000106  00000-0  73373-4 0  9995
2 19120  71.0173   5.1108 0022364 194.4735 165.5752 14.19207966672628
COSMOS 1953             
1 19210U 88050A   20246.78673000  .00000836  00000-0  55289-4 0  9999
2 19210  82.5189 334.7621 0012101 209.3443 150.7106 15.06011176733308
SL-8 R/B                
1 19257U 88053B   20246.42117067 -.00000069  00000-0 -14133-4 0  9993
2 19257  74.0468 219.4602 0020545 183.1943 292.3126 14.37480339687068
COSMOS 1975             
1 19573U 88093A   20247.08394309  .00000135  00000-0  74873-5 0  9997
2 19573  82.5188 288.9849 0012810 256.2910 103.6891 15.04921922736328
SL-14 R/B               
1 19574U 88093B   20246.80051294  .00000080  00000-0  68488-5 0  9994
2 19574  82.5322 127.7328 0020913 203.3198 224.6184 14.83335979723428
SL-16 R/B               
1 19650U 88102B   20246.92026076 -.00000158  00000-0 -55769-4 0  9998
2 19650  70.9988  67.0109 0015094 204.6689 155.3714 14.15790333641846
INTERCOSMOS 24          
1 20261U 89080A   20247.23356896  .00000118  00000-0  35095-4 0  9999
2 20261  82.6094 329.9466 1201485 268.3982  77.9478 12.56128338413357
SL-14 R/B               
1 20262U 89080C   20246.88568016  .00000040  00000-0  18095-5 0  9995
2 20262  82.5968  24.3208 1237716 100.5839 273.6771 12.48945745408659
DELTA 2 R/B(1)          
1 20303U 89085B   20246.39522156  .00001480  00000-0  49243-4 0  9994
2 20303  35.6318 247.0234 0093995 140.9398 219.8163 15.27551262680377
DELTA 1 R/B             
1 20323U 89089B   20246.87207349  .00000005  00000-0  10591-4 0  9993
2 20323  97.1012  20.3526 0071341 348.6889  11.2701 14.48356493604078
ARIANE 40 R/B           
1 20443U 90005H   20247.09095059  .00000017  00000-0  20167-4 0  9997
2 20443  98.5697 308.7633 0011583 110.4725 249.7706 14.38097469603530
DELTA 2 R/B(1)          
1 20453U 90008B   20247.11087867  .00000634  00000-0  37324-4 0  9990
2 20453  35.6252 158.3486 0281186 233.3301 124.1262 14.85654328622751
COSMOS 2058             
1 20465U 90010A   20247.06620522  .00000279  00000-0  21318-4 0  9992
2 20465  82.4906 198.6589 0014019 303.3015  56.6864 14.98038159661055
SL-14 R/B               
1 20466U 90010B   20246.81678057  .00000065  00000-0  52403-5 0  9994
2 20466  82.5064 354.3724 0022058  83.9872 276.3855 14.81391383651242
SL-14 R/B               
1 20511U 90018B   20247.20859098  .00000076  00000-0  69200-5 0  9998
2 20511  82.5227 300.7354 0016467 218.9582 197.1198 14.80046956645710
HST                     
1 20580U 90037B   20246.95425928  .00000459  00000-0  16925-4 0  9997
2 20580  28.4689 167.0545 0002670 201.1772  80.1670 15.09425497467686
SL-16 R/B               
1 20625U 90046B   20246.93238876  .00000186  00000-0  12121-3 0  9999
2 20625  70.9978 205.5714 0012695 129.9136 230.3104 14.14654493563575
COSMOS 2084             
1 20663U 90055A   20246.45672373 -.00000012  00000-0  16730-4 0  9992
2 20663  62.7936 271.0840 0030720 296.7356  63.0594 14.92107779634854
SL-6 R/B(2)             
1 20666U 90055D   20247.09936841 -.00000016  00000-0  16665-4 0  9990
2 20666  62.7858 185.1790 0056278 356.8571   3.2161 14.92358457636356
SL-8 R/B                
1 20775U 90078B   20246.87916357  .00002289  00000-0  11163-3 0  9991
2 20775  82.9300 162.7903 0571538 314.9451  40.6691 14.34643163516833
SL-8 R/B                
1 21088U 91006B   20247.05360941 -.00000009  00000-0 -23781-4 0  9994
2 21088  82.9409 227.5141 0021080 274.4842 149.6623 13.77143827487167
OKEAN-3                 
1 21397U 91039A   20246.65884124  .00000225  00000-0  19168-4 0  9994
2 21397  82.5198 103.3167 0016267 271.7696  88.1661 14.92952544563782
COSMOS 2151             
1 21422U 91042A   20246.91206677  .00000147  00000-0  11887-4 0  9990
2 21422  82.5007 209.1931 0013603 340.9950  19.0760 14.92151861562434
SL-14 R/B               
1 21423U 91042B   20246.75071391  .00000080  00000-0  74989-5 0  9995
2 21423  82.4940 304.6635 0017819  11.1452 349.0152 14.79797433555090
ERS-1                   
1 21574U 91050A   20246.87416009  .00000028  00000-0  23900-4 0  9991
2 21574  98.6035 200.2827 0034088  57.8173 302.6313 14.37755331526243
ARIANE 40 R/B           
1 21610U 91050F   20246.84478854  .00000011  00000-0  17033-4 0  9997
2 21610  98.4600 315.2889 0003869  45.2801  73.8329 14.40912104528846
INTERCOSMOS 25          
1 21819U 91086A   20246.70955357 -.00000090  00000-0 -26427-4 0  9996
2 21819  82.5830  80.0630 1517118 107.4432 269.7794 12.05130960253596
SL-8 R/B                
1 21876U 92008B   20246.77650546  .00000053  00000-0  38663-4 0  9995
2 21876  82.9292 324.9537 0034640   0.3827 115.7546 13.75657185432734
SL-8 R/B                
1 21938U 92020B   20246.94298027 -.00000034  00000-0 -51166-4 0  9993
2 21938  82.9309 209.0291 0029740 154.6991 258.4371 13.75277582424328
COSMOS 2219             
1 22219U 92076A   20247.19480920 -.00000328  00000-0 -14857-3 0  9991
2 22219  71.0576 265.3134 0016851  28.1257 332.0772 14.13644978434129
SL-16 R/B               
1 22220U 92076B   20246.90555946 -.00000035  00000-0  66020-5 0  9997
2 22220  70.9992 108.5445 0015042 282.3178 166.2437 14.16457087436977
COSMOS 2221             
1 22236U 92080A   20246.89495064  .00000148  00000-0  13385-4 0  9990
2 22236  82.5088  30.4706 0018074  67.0316 293.2806 14.87943665480792
SL-16 R/B               
1 22285U 92093B   20246.35314217 -.00000254  00000-0 -10669-3 0  9990
2 22285  71.0194 271.1890 0003179 173.6165 186.4998 14.15045784428491
COSMOS 2228             
1 22286U 92094A   20246.83580831  .00000175  00000-0  16202-4 0  9992
2 22286  82.5232 346.8627 0021165 180.0296 180.0924 14.88161065475955
SL-16 R/B               
1 22566U 93016B   20246.87880529 -.00000255  00000-0 -10708-3 0  9994
2 22566  71.0076 123.2305 0009180 160.4973 199.6502 14.14966555417288
COSMOS 2242             
1 22626U 93024A   20246.82104025  .00000162  00000-0  14856-4 0  9999
2 22626  82.5240  15.0277 0018940 179.6660 180.4574 14.88017250480669
SL-16 R/B               
1 22803U 93059B   20247.20508839 -.00000208  00000-0 -79941-4 0  9997
2 22803  70.9886 295.4144 0015912  31.0119 329.1940 14.16824888394573
ARIANE 40 R/B           
1 22830U 93061H   20246.75111043 -.00000018  00000-0  10319-4 0  9998
2 22830  98.7585 296.6377 0012082  95.7514 264.5046 14.31455245405889
COSMOS 2278             
1 23087U 94023A   20247.00482013 -.00000267  00000-0 -11590-3 0  9997
2 23087  71.0536  65.5583 0010695 234.4802 125.5323 14.13813758360405
SL-16 R/B               
1 23088U 94023B   20246.68562068 -.00000309  00000-0 -13582-3 0  9990
2 23088  71.0022 339.0171 0001568 161.2129 198.9052 14.14687295361507
SL-16 R/B               
1 23343U 94074B   20246.75977880  .00000014  00000-0  93649-5 0  9995
2 23343  97.9922 299.0478 0005498 259.6936 213.1983 14.76834405389829
SL-16 R/B               
1 23405U 94077B   20246.52845367  .00000307  00000-0  18273-3 0  9999
2 23405  70.9811 268.4048 0003956 309.7668  50.3106 14.15222990331261
ERS-2                   
1 23560U 95021A   20247.00841269  .00000715  00000-0  33933-4 0  9996
2 23560  98.5502  51.1599 0002139 266.3385  93.7604 15.23272314353959
ARIANE 40+ R/B          
1 23561U 95021B   20247.17276660  .00000021  00000-0  22069-4 0  9990
2 23561  98.7182 287.5325 0007431  32.6088   8.6904 14.37980631329966
SL-16 R/B               
1 23705U 95058B   20246.98824789 -.00000260  00000-0 -10905-3 0  9991
2 23705  71.0214  86.2757 0014545 303.2561  56.7168 14.15138653283247
SL-16 R/B               
1 24298U 96051B   20246.91816443 -.00000052  00000-0 -15594-5 0  9994
2 24298  70.8423 107.2322 0018859 239.4300 120.4960 14.12498661237297
ORBVIEW 2 (SEASTAR)     
1 24883U 97037A   20246.87472029  .00000013  00000-0  20619-4 0  9990
2 24883  98.6180 359.7986 0001592 210.8885 149.2206 14.33567628219804
SL-16 R/B               
1 25400U 98043G   20246.78567762 -.00000026  00000-0  72297-5 0  9998
2 25400  98.6091 181.2976 0010984 107.5391 252.6990 14.25459777152033
SL-16 R/B               
1 25407U 98045B   20246.98618417  .00000095  00000-0  72473-4 0  9993
2 25407  71.0099  94.6667 0008970 226.4456 133.5923 14.15826334142322
ISS (ZARYA)             
1 25544U 98067A   20247.40417950  .00001292  00000-0  31384-4 0  9992
2 25544  51.6474 321.3900 0001990  79.3633 357.5665 15.49212758244143
SL-8 R/B                
1 25723U 99022C   20246.45947292  .00022989  00000-0  14368-3 0  9992
2 25723  48.4106 300.4768 0006136 354.4867   5.6018 15.76629388189806
CZ-4B R/B               
1 25732U 99025C   20246.69304205 -.00000025  00000-0  99688-5 0  9990
2 25732  98.9400 275.9441 0037145 352.1321 113.4280 14.17680383102902
OKEAN-O                 
1 25860U 99039A   20246.62285770  .00000030  00000-0  11966-4 0  9992
2 25860  98.2118 266.9543 0001313  66.3667 293.7680 14.76675498136999
SL-16 R/B               
1 25861U 99039B   20247.08473647  .00000007  00000-0  85296-5 0  9998
2 25861  98.2098 250.7777 0014289 268.6295 131.9860 14.78588904139237
DELTA 2 R/B             
1 25876U 99041E   20246.86025307  .00000051  00000-0  48386-4 0  9995
2 25876  51.7680   4.7525 0531127 209.7831 147.1866 14.04450667 79522
